CCSDS_OMM_VERS = 2.0
CREATION_DATE  = 
ORIGINATOR     = 

OBJECT_NAME    = SL-8 R/B
OBJECT_ID      = 1985-006B
CENTER_NAME    = EARTH
REF_FRAME      = TEME
TIME_SYSTEM    = UTC
MEAN_ELEMENT_THEORY = SGP/SGP4

EPOCH          = 2026-04-05T07:13:46.405056
MEAN_MOTION    = 14.37803448
ECCENTRICITY   = .0017441
INCLINATION    = 74.0462
RA_OF_ASC_NODE = 212.1792
ARG_OF_PERICENTER = 121.9276
MEAN_ANOMALY   = 270.5976

EPHEMERIS_TYPE = 0
CLASSIFICATION_TYPE = U
NORAD_CAT_ID   = 15483
ELEMENT_SET_NO = 999
REV_AT_EPOCH   = 15785
BSTAR          = .14291913E-3
MEAN_MOTION_DOT = .405E-5
MEAN_MOTION_DDOT = 0

CCSDS_OMM_VERS = 2.0
CREATION_DATE  = 
ORIGINATOR     = 

OBJECT_NAME    = SL-12 R/B(2)
OBJECT_ID      = 1985-042D
CENTER_NAME    = EARTH
REF_FRAME      = TEME
TIME_SYSTEM    = UTC
MEAN_ELEMENT_THEORY = SGP/SGP4

EPOCH          = 2026-04-05T03:37:26.036256
MEAN_MOTION    = 14.21990564
ECCENTRICITY   = .00328403
INCLINATION    = 71.1101
RA_OF_ASC_NODE = 31.8216
ARG_OF_PERICENTER = 84.1794
MEAN_ANOMALY   = 12.2007

EPHEMERIS_TYPE = 0
CLASSIFICATION_TYPE = U
NORAD_CAT_ID   = 15772
ELEMENT_SET_NO = 999
REV_AT_EPOCH   = 11815
BSTAR          = .10186142E-3
MEAN_MOTION_DOT = .179E-5
MEAN_MOTION_DDOT = 0

CCSDS_OMM_VERS = 2.0
CREATION_DATE  = 
ORIGINATOR     = 

OBJECT_NAME    = SL-14 R/B
OBJECT_ID      = 1985-069B
CENTER_NAME    = EARTH
REF_FRAME      = TEME
TIME_SYSTEM    = UTC
MEAN_ELEMENT_THEORY = SGP/SGP4

EPOCH          = 2026-04-05T03:11:50.740224
MEAN_MOTION    = 14.86463317
ECCENTRICITY   = .00203152
INCLINATION    = 82.5304
RA_OF_ASC_NODE = 0.0751
ARG_OF_PERICENTER = 103.6390
MEAN_ANOMALY   = 256.7091

EPHEMERIS_TYPE = 0
CLASSIFICATION_TYPE = U
NORAD_CAT_ID   = 15945
ELEMENT_SET_NO = 999
REV_AT_EPOCH   = 17676
BSTAR          = .70979045E-4
MEAN_MOTION_DOT = .654E-5
MEAN_MOTION_DDOT = 0

CCSDS_OMM_VERS = 2.0
CREATION_DATE  = 
ORIGINATOR     = 

OBJECT_NAME    = SL-16 R/B
OBJECT_ID      = 1985-097B
CENTER_NAME    = EARTH
REF_FRAME      = TEME
TIME_SYSTEM    = UTC
MEAN_ELEMENT_THEORY = SGP/SGP4

EPOCH          = 2026-04-05T05:55:01.232256
MEAN_MOTION    = 14.16602446
ECCENTRICITY   = .00091561
INCLINATION    = 71.0009
RA_OF_ASC_NODE = 84.6409
ARG_OF_PERICENTER = 227.8787
MEAN_ANOMALY   = 152.6979

EPHEMERIS_TYPE = 0
CLASSIFICATION_TYPE = U
NORAD_CAT_ID   = 16182
ELEMENT_SET_NO = 999
REV_AT_EPOCH   = 9099
BSTAR          = -.3967972E-4
MEAN_MOTION_DOT = -.127E-5
MEAN_MOTION_DDOT = 0

CCSDS_OMM_VERS = 2.0
CREATION_DATE  = 
ORIGINATOR     = 

OBJECT_NAME    = SL-14 R/B
OBJECT_ID      = 1986-006B
CENTER_NAME    = EARTH
REF_FRAME      = TEME
TIME_SYSTEM    = UTC
MEAN_ELEMENT_THEORY = SGP/SGP4

EPOCH          = 2026-04-05T04:05:56.211936
MEAN_MOTION    = 14.86864332
ECCENTRICITY   = .00763969
INCLINATION    = 82.5263
RA_OF_ASC_NODE = 234.8098
ARG_OF_PERICENTER = 183.8267
MEAN_ANOMALY   = 176.2377

EPHEMERIS_TYPE = 0
CLASSIFICATION_TYPE = U
NORAD_CAT_ID   = 16496
ELEMENT_SET_NO = 999
REV_AT_EPOCH   = 15314
BSTAR          = .14103423E-3
MEAN_MOTION_DOT = .1354E-4
MEAN_MOTION_DDOT = 0

CCSDS_OMM_VERS = 2.0
CREATION_DATE  = 
ORIGINATOR     = 

OBJECT_NAME    = COSMOS 1743
OBJECT_ID      = 1986-034A
CENTER_NAME    = EARTH
REF_FRAME      = TEME
TIME_SYSTEM    = UTC
MEAN_ELEMENT_THEORY = SGP/SGP4

EPOCH          = 2026-04-05T06:26:06.179712
MEAN_MOTION    = 15.61038643
ECCENTRICITY   = .00059197
INCLINATION    = 82.5317
RA_OF_ASC_NODE = 45.8893
ARG_OF_PERICENTER = 153.2401
MEAN_ANOMALY   = 206.9163

EPHEMERIS_TYPE = 0
CLASSIFICATION_TYPE = U
NORAD_CAT_ID   = 16719
ELEMENT_SET_NO = 999
REV_AT_EPOCH   = 18439
BSTAR          = .67114782E-3
MEAN_MOTION_DOT = .56744E-3
MEAN_MOTION_DDOT = 0

CCSDS_OMM_VERS = 2.0
CREATION_DATE  = 
ORIGINATOR     = 

OBJECT_NAME    = SL-14 R/B
OBJECT_ID      = 1986-046B
CENTER_NAME    = EARTH
REF_FRAME      = TEME
TIME_SYSTEM    = UTC
MEAN_ELEMENT_THEORY = SGP/SGP4

EPOCH          = 2026-04-05T06:39:48.705120
MEAN_MOTION    = 14.85619364
ECCENTRICITY   = .00241377
INCLINATION    = 82.4818
RA_OF_ASC_NODE = 55.0548
ARG_OF_PERICENTER = 137.2603
MEAN_ANOMALY   = 223.0496

EPHEMERIS_TYPE = 0
CLASSIFICATION_TYPE = U
NORAD_CAT_ID   = 16792
ELEMENT_SET_NO = 999
REV_AT_EPOCH   = 13035
BSTAR          = .81180679E-4
MEAN_MOTION_DOT = .731E-5
MEAN_MOTION_DDOT = 0

CCSDS_OMM_VERS = 2.0
CREATION_DATE  = 
ORIGINATOR     = 

OBJECT_NAME    = SL-14 R/B
OBJECT_ID      = 1986-055B
CENTER_NAME    = EARTH
REF_FRAME      = TEME
TIME_SYSTEM    = UTC
MEAN_ELEMENT_THEORY = SGP/SGP4

EPOCH          = 2026-04-05T06:18:26.866080
MEAN_MOTION    = 14.85668737
ECCENTRICITY   = .00174749
INCLINATION    = 82.5169
RA_OF_ASC_NODE = 101.6895
ARG_OF_PERICENTER = 242.0406
MEAN_ANOMALY   = 128.7967

EPHEMERIS_TYPE = 0
CLASSIFICATION_TYPE = U
NORAD_CAT_ID   = 16882
ELEMENT_SET_NO = 999
REV_AT_EPOCH   = 12331
BSTAR          = .69965992E-4
MEAN_MOTION_DOT = .632E-5
MEAN_MOTION_DDOT = 0

CCSDS_OMM_VERS = 2.0
CREATION_DATE  = 
ORIGINATOR     = 

OBJECT_NAME    = AJISAI (EGS)
OBJECT_ID      = 1986-061A
CENTER_NAME    = EARTH
REF_FRAME      = TEME
TIME_SYSTEM    = UTC
MEAN_ELEMENT_THEORY = SGP/SGP4

EPOCH          = 2026-04-05T07:15:10.257120
MEAN_MOTION    = 12.44515678
ECCENTRICITY   = .00113692
INCLINATION    = 50.0121
RA_OF_ASC_NODE = 11.5146
ARG_OF_PERICENTER = 355.5038
MEAN_ANOMALY   = 96.7484

EPHEMERIS_TYPE = 0
CLASSIFICATION_TYPE = U
NORAD_CAT_ID   = 16908
ELEMENT_SET_NO = 999
REV_AT_EPOCH   = 47131
BSTAR          = .8281478E-4
MEAN_MOTION_DOT = -.86E-6
MEAN_MOTION_DDOT = 0

CCSDS_OMM_VERS = 2.0
CREATION_DATE  = 
ORIGINATOR     = 

OBJECT_NAME    = SL-14 R/B
OBJECT_ID      = 1987-024B
CENTER_NAME    = EARTH
REF_FRAME      = TEME
TIME_SYSTEM    = UTC
MEAN_ELEMENT_THEORY = SGP/SGP4

EPOCH          = 2026-04-05T04:00:03.108960
MEAN_MOTION    = 14.86160379
ECCENTRICITY   = .00184784
INCLINATION    = 82.5265
RA_OF_ASC_NODE = 67.8715
ARG_OF_PERICENTER = 168.1963
MEAN_ANOMALY   = 191.9691

EPHEMERIS_TYPE = 0
CLASSIFICATION_TYPE = U
NORAD_CAT_ID   = 17567
ELEMENT_SET_NO = 999
REV_AT_EPOCH   = 9206
BSTAR          = .77603974E-4
MEAN_MOTION_DOT = .707E-5
MEAN_MOTION_DDOT = 0

CCSDS_OMM_VERS = 2.0
CREATION_DATE  = 
ORIGINATOR     = 

OBJECT_NAME    = COSMOS 1833
OBJECT_ID      = 1987-027A
CENTER_NAME    = EARTH
REF_FRAME      = TEME
TIME_SYSTEM    = UTC
MEAN_ELEMENT_THEORY = SGP/SGP4

EPOCH          = 2026-04-05T04:39:31.562784
MEAN_MOTION    = 14.13043779
ECCENTRICITY   = .00229336
INCLINATION    = 70.9164
RA_OF_ASC_NODE = 270.3077
ARG_OF_PERICENTER = 174.8600
MEAN_ANOMALY   = 185.2761

EPHEMERIS_TYPE = 0
CLASSIFICATION_TYPE = U
NORAD_CAT_ID   = 17589
ELEMENT_SET_NO = 999
REV_AT_EPOCH   = 1406
BSTAR          = -.14363484E-3
MEAN_MOTION_DOT = -.317E-5
MEAN_MOTION_DDOT = 0

CCSDS_OMM_VERS = 2.0
CREATION_DATE  = 
ORIGINATOR     = 

OBJECT_NAME    = SL-16 R/B
OBJECT_ID      = 1987-027B
CENTER_NAME    = EARTH
REF_FRAME      = TEME
TIME_SYSTEM    = UTC
MEAN_ELEMENT_THEORY = SGP/SGP4

EPOCH          = 2026-04-05T02:10:50.863008
MEAN_MOTION    = 14.17168875
ECCENTRICITY   = .00028648
INCLINATION    = 71.0027
RA_OF_ASC_NODE = 220.8572
ARG_OF_PERICENTER = 75.5026
MEAN_ANOMALY   = 284.6416

EPHEMERIS_TYPE = 0
CLASSIFICATION_TYPE = U
NORAD_CAT_ID   = 17590
ELEMENT_SET_NO = 999
REV_AT_EPOCH   = 1908
BSTAR          = .14626481E-3
MEAN_MOTION_DOT = .247E-5
MEAN_MOTION_DDOT = 0

CCSDS_OMM_VERS = 2.0
CREATION_DATE  = 
ORIGINATOR     = 

OBJECT_NAME    = SL-14 R/B
OBJECT_ID      = 1987-038B
CENTER_NAME    = EARTH
REF_FRAME      = TEME
TIME_SYSTEM    = UTC
MEAN_ELEMENT_THEORY = SGP/SGP4

EPOCH          = 2026-04-04T23:21:21.055104
MEAN_MOTION    = 14.85395913
ECCENTRICITY   = .00207197
INCLINATION    = 82.4978
RA_OF_ASC_NODE = 272.0394
ARG_OF_PERICENTER = 78.7626
MEAN_ANOMALY   = 281.5918

EPHEMERIS_TYPE = 0
CLASSIFICATION_TYPE = U
NORAD_CAT_ID   = 17912
ELEMENT_SET_NO = 999
REV_AT_EPOCH   = 8313
BSTAR          = .73781835E-4
MEAN_MOTION_DOT = .662E-5
MEAN_MOTION_DDOT = 0

CCSDS_OMM_VERS = 2.0
CREATION_DATE  = 
ORIGINATOR     = 

OBJECT_NAME    = COSMOS 1844
OBJECT_ID      = 1987-041A
CENTER_NAME    = EARTH
REF_FRAME      = TEME
TIME_SYSTEM    = UTC
MEAN_ELEMENT_THEORY = SGP/SGP4

EPOCH          = 2026-04-05T01:25:48.360864
MEAN_MOTION    = 14.14562532
ECCENTRICITY   = .0031559
INCLINATION    = 70.9016
RA_OF_ASC_NODE = 338.5572
ARG_OF_PERICENTER = 339.1537
MEAN_ANOMALY   = 20.8296

EPHEMERIS_TYPE = 0
CLASSIFICATION_TYPE = U
NORAD_CAT_ID   = 17973
ELEMENT_SET_NO = 999
REV_AT_EPOCH   = 731
BSTAR          = .18587675E-3
MEAN_MOTION_DOT = .31E-5
MEAN_MOTION_DDOT = 0

CCSDS_OMM_VERS = 2.0
CREATION_DATE  = 
ORIGINATOR     = 

OBJECT_NAME    = SL-14 R/B
OBJECT_ID      = 1987-055B
CENTER_NAME    = EARTH
REF_FRAME      = TEME
TIME_SYSTEM    = UTC
MEAN_ELEMENT_THEORY = SGP/SGP4

EPOCH          = 2026-04-05T03:32:18.384000
MEAN_MOTION    = 14.85656716
ECCENTRICITY   = .00191672
INCLINATION    = 82.4994
RA_OF_ASC_NODE = 324.0975
ARG_OF_PERICENTER = 287.6102
MEAN_ANOMALY   = 72.3021

EPHEMERIS_TYPE = 0
CLASSIFICATION_TYPE = U
NORAD_CAT_ID   = 18153
ELEMENT_SET_NO = 999
REV_AT_EPOCH   = 7386
BSTAR          = .62342266E-4
MEAN_MOTION_DOT = .565E-5
MEAN_MOTION_DDOT = 0

